MEAN_MOTION;ECCENTRICITY;INCLINATION;RA_OF_ASC_NODE;ARG_OF_PERICENTER;MEAN_ANOMALY;BSTAR;MEAN_MOTION_DOT;MEAN_MOTION_DDOT;TYPE
14.64293304;0.0019774;47.0624;308.5365;309.2128;50.7005;1.8838E-5;-8.2E-7;0;Orbcomm
14.64293593;0.0019746;47.0622;303.3355;314.1354;45.7911;2.0769E-5;-7.2E-7;0;Orbcomm
14.6429362;0.0019748;47.0622;303.0104;314.4479;45.4794;2.1279E-5;-6.9E-7;0;Orbcomm
14.64294001;0.001966;47.0621;298.4595;318.6898;41.2503;2.4926E-5;-5.0E-7;0;Orbcomm
14.64294037;0.0019649;47.0621;298.1344;318.9924;40.9486;2.5445E-5;-4.7E-7;0;Orbcomm
14.6429428;0.0019615;47.062;294.5586;322.3459;37.6056;2.6536E-5;-4.1E-7;0;Orbcomm
14.64294304;0.0019611;47.062;294.2335;322.6501;37.3023;2.6545E-5;-4.1E-7;0;Orbcomm
14.64294385;0.0019596;47.062;292.9333;323.8953;36.0612;2.7126E-5;-3.8E-7;0;Orbcomm
14.64294532;0.0019565;47.0619;290.0076;326.6493;33.3163;2.6056E-5;-4.4E-7;0;Orbcomm
14.642948;0.0019508;47.0618;285.4566;330.965;29.0153;2.5439E-5;-4.7E-7;0;Orbcomm
14.64294818;0.0019501;47.0618;285.1316;331.2682;28.7132;2.5101E-5;-4.9E-7;0;Orbcomm
14.6429504;0.0019445;47.0616;280.2555;335.903;24.0948;2.3539E-5;-5.7E-7;0;Orbcomm
14.64295114;0.0019429;47.0616;278.9553;337.1569;22.8454;2.3839E-5;-5.6E-7;0;Orbcomm
14.64295319;0.0019373;47.0615;275.3794;340.5253;19.4894;2.3079E-5;-6.0E-7;0;Orbcomm
14.64295616;0.0019282;47.0614;268.8781;346.753;13.285;2.1564E-5;-6.8E-7;0;Orbcomm
14.64295819;0.0019225;47.0613;264.9772;350.4822;9.57;2.2075E-5;-6.5E-7;0;Orbcomm
14.64295993;0.0019162;47.0613;261.7264;353.5771;6.487;2.2229E-5;-6.5E-7;0;Orbcomm
14.64296115;0.0019149;47.0612;260.1011;355.1756;4.8945;2.4341E-5;-5.3E-7;0;Orbcomm
14.64296254;0.0019099;47.0612;256.8503;358.2985;1.7836;2.3829E-5;-5.6E-7;0;Orbcomm
14.64296522;0.0019016;47.0613;252.2993;2.6473;357.4514;2.4566E-5;-5.2E-7;0;Orbcomm
14.64296601;0.0018992;47.0613;250.9991;3.9088;356.1946;2.5065E-5;-4.9E-7;0;Orbcomm
14.64296636;0.0018986;47.0613;250.349;4.5421;355.5637;2.5086E-5;-4.9E-7;0;Orbcomm
14.64296659;0.0018959;47.0613;247.0981;7.7274;352.3903;2.2872E-5;-6.1E-7;0;Orbcomm
14.64296724;0.0018946;47.0614;246.123;8.6726;351.4487;2.352E-5;-5.8E-7;0;Orbcomm
14.64296832;0.0018895;47.0614;242.5472;12.147;347.9871;2.0995E-5;-7.1E-7;0;Orbcomm
14.64296915;0.001888;47.0614;240.9219;13.7456;346.3943;2.1423E-5;-6.9E-7;0;Orbcomm
14.6429709;0.0018818;47.0616;236.046;18.5374;341.6197;1.9239E-5;-8.1E-7;0;Orbcomm
14.64297137;0.0018803;47.0616;234.7458;19.7916;340.3699;1.8267E-5;-8.6E-7;0;Orbcomm
14.64297328;0.0018758;47.0616;231.4952;22.985;337.1875;1.9189E-5;-8.1E-7;0;Orbcomm
14.64297405;0.0018738;47.0617;229.8699;24.5608;335.617;1.886E-5;-8.3E-7;0;Orbcomm
14.64297591;0.0018692;47.0616;227.2693;27.1452;333.0411;2.0702E-5;-7.3E-7;0;Orbcomm
14.64297766;0.001865;47.0617;224.0187;30.3359;329.8605;2.0942E-5;-7.1E-7;0;Orbcomm
14.64297923;0.0018632;47.0616;221.7434;32.5808;327.6227;2.1841E-5;-6.7E-7;0;Orbcomm
14.64298092;0.0018596;47.0616;219.4679;34.8177;325.3924;2.3263E-5;-5.9E-7;0;Orbcomm
14.64298325;0.0018558;47.0616;214.592;39.6628;320.5614;2.3389E-5;-5.8E-7;0;Orbcomm
14.64298555;0.0018488;47.0616;209.7161;44.4673;315.7697;2.3511E-5;-5.8E-7;0;Orbcomm
14.64298808;0.0018445;47.0616;204.5151;49.646;310.6037;2.4686E-5;-5.1E-7;0;Orbcomm
14.64298825;0.0018445;47.0617;204.1901;49.9685;310.2819;2.4935E-5;-5.0E-7;0;Orbcomm
14.64298884;0.0018438;47.0616;203.2149;50.9479;309.3047;2.5027E-5;-5.0E-7;0;Orbcomm
14.64299159;0.0018391;47.0616;198.664;55.4916;304.7707;2.6301E-5;-4.3E-7;0;Orbcomm
14.64299518;0.0018346;47.0617;194.4382;59.7303;300.5399;2.9529E-5;-2.6E-7;0;Orbcomm
14.64299772;0.0018322;47.0617;191.8377;62.3158;297.9587;3.1839E-5;-1.3E-7;0;Orbcomm
14.6429995;0.0018318;47.0617;190.2124;63.9666;296.3106;3.4108E-5;-1.0E-8;0;Orbcomm
14.64300213;0.0018297;47.0617;186.9618;67.1917;293.0903;3.4383E-5;0;0;Orbcomm
14.64300366;0.001829;47.0617;185.3366;68.8276;291.4565;3.4956E-5;3.0E-8;0;Orbcomm
14.64300682;0.0018272;47.0616;181.4359;72.74;287.5487;3.4476E-5;1.0E-8;0;Orbcomm
14.64300728;0.001827;47.0616;180.4608;73.7135;286.5762;3.3612E-5;-4.0E-8;0;Orbcomm
14.64300941;0.0018252;47.0615;175.9099;78.2763;282.0172;2.8727E-5;-3.0E-7;0;Orbcomm
14.64300962;0.001825;47.0615;175.5849;78.5936;281.7002;2.8667E-5;-3.0E-7;0;Orbcomm
14.64301218;0.0018234;47.0614;170.3839;83.7977;276.4989;2.5175E-5;-4.9E-7;0;Orbcomm
14.64301511;0.0018224;47.0612;165.833;88.3639;271.9337;2.5674E-5;-4.6E-7;0;Orbcomm
14.64301743;0.0018216;47.0611;161.9322;92.2877;268.0098;2.5963E-5;-4.5E-7;0;Orbcomm
14.64302027;0.001821;47.061;157.0561;97.1774;263.1186;2.6734E-5;-4.0E-7;0;Orbcomm
14.64302326;0.0018213;47.061;151.855;102.3951;257.8977;2.6779E-5;-4.0E-7;0;Orbcomm
14.6430254;0.0018222;47.061;147.6291;106.6388;253.6503;2.6584E-5;-4.1E-7;0;Orbcomm
14.64302683;0.0018229;47.061;144.3783;109.9299;250.3556;2.4743E-5;-5.1E-7;0;Orbcomm
14.64302729;0.0018239;47.061;142.428;111.8771;248.406;2.3358E-5;-5.8E-7;0;Orbcomm
14.64302859;0.001825;47.061;139.5023;114.8242;245.4547;2.2192E-5;-6.5E-7;0;Orbcomm
14.64302949;0.0018262;47.061;137.877;116.4439;243.8326;2.2355E-5;-6.4E-7;0;Orbcomm
14.64303183;0.0018283;47.061;133.3261;120.9896;239.2791;2.1492E-5;-6.8E-7;0;Orbcomm
14.6430321;0.0018287;47.061;133.001;121.3144;238.9538;2.1457E-5;-6.9E-7;0;Orbcomm
14.64303464;0.0018317;47.061;128.45;125.8659;234.3934;2.1102E-5;-7.0E-7;0;Orbcomm
14.6430371;0.0018352;47.061;123.899;130.415;229.8343;2.1148E-5;-7.0E-7;0;Orbcomm
14.64303888;0.0018378;47.061;120.6482;133.6773;226.5643;2.07E-5;-7.3E-7;0;Orbcomm
14.64303982;0.0018391;47.061;119.348;134.957;225.2813;2.2105E-5;-6.5E-7;0;Orbcomm
14.64304127;0.0018422;47.0611;115.7721;138.5211;221.708;2.1132E-5;-7.0E-7;0;Orbcomm
14.64304216;0.0018433;47.0611;114.1468;140.1026;220.1221;2.1682E-5;-6.7E-7;0;Orbcomm
14.6430433;0.0018468;47.0611;110.896;143.3489;216.8667;2.0301E-5;-7.5E-7;0;Orbcomm
14.64304398;0.0018479;47.0612;109.5958;144.6181;215.5937;2.0915E-5;-7.1E-7;0;Orbcomm
14.64304583;0.0018528;47.0613;104.7197;149.4361;210.7611;2.0115E-5;-7.6E-7;0;Orbcomm
14.6430488;0.0018591;47.0616;97.8932;156.1014;204.0742;2.0687E-5;-7.3E-7;0;Orbcomm
14.6430492;0.0018612;47.0616;96.593;157.3742;202.7971;2.0038E-5;-7.6E-7;0;Orbcomm
14.64304971;0.0018621;47.0616;95.6179;158.3133;201.8548;2.0266E-5;-7.5E-7;0;Orbcomm
14.64305197;0.001868;47.0619;90.7419;163.092;197.0595;2.0026E-5;-7.6E-7;0;Orbcomm
14.64305308;0.0018716;47.062;88.1413;165.656;194.4864;1.9079E-5;-8.1E-7;0;Orbcomm
14.64305387;0.0018736;47.062;86.5161;167.2275;192.9092;1.9319E-5;-8.0E-7;0;Orbcomm
14.64305574;0.0018785;47.0622;82.6154;171.0296;189.0931;1.8995E-5;-8.2E-7;0;Orbcomm
14.64305683;0.0018795;47.0622;81.3152;172.2774;187.8407;2.0108E-5;-7.6E-7;0;Orbcomm
14.64305769;0.0018831;47.0623;78.7146;174.8009;185.3078;1.8692E-5;-8.3E-7;0;Orbcomm
14.6430584;0.0018847;47.0624;77.4144;176.0476;184.0565;1.9125E-5;-8.1E-7;0;Orbcomm
14.64305877;0.0018852;47.0624;76.7643;176.6743;183.4274;1.9074E-5;-8.1E-7;0;Orbcomm
14.64305989;0.0018887;47.0625;74.1638;179.1965;180.8957;1.8548E-5;-8.4E-7;0;Orbcomm
14.64306122;0.0018906;47.0626;72.2135;181.0449;179.0403;1.9732E-5;-7.8E-7;0;Orbcomm
14.64306233;0.001894;47.0626;69.6129;183.5684;176.5072;1.9227E-5;-8.0E-7;0;Orbcomm
14.64306414;0.0018966;47.0627;67.3376;185.72;174.3475;2.1231E-5;-7.0E-7;0;Orbcomm
14.64306524;0.0019002;47.0628;64.737;188.2276;171.8304;2.0365E-5;-7.4E-7;0;Orbcomm
14.64306661;0.0019019;47.0629;62.7868;190.0636;169.9875;2.1811E-5;-6.6E-7;0;Orbcomm
14.64306906;0.0019074;47.063;58.561;194.1124;165.9234;2.3017E-5;-6.0E-7;0;Orbcomm
14.64307123;0.0019119;47.0631;54.9853;197.542;162.4811;2.2967E-5;-6.0E-7;0;Orbcomm
14.64307209;0.0019134;47.0632;53.6852;198.7825;161.236;2.3994E-5;-5.5E-7;0;Orbcomm
14.64307415;0.0019186;47.0634;48.8095;203.3998;156.6019;2.2928E-5;-6.0E-7;0;Orbcomm
14.64307663;0.0019244;47.0635;43.9338;208.0226;151.9628;2.2713E-5;-6.2E-7;0;Orbcomm
14.64307782;0.0019284;47.0635;41.0082;210.7833;149.1926;2.1465E-5;-6.8E-7;0;Orbcomm
14.64307879;0.0019295;47.0635;39.3831;212.2975;147.6734;2.2117E-5;-6.5E-7;0;Orbcomm
14.64308164;0.0019333;47.0636;36.1325;215.3621;144.5986;2.5053E-5;-4.9E-7;0;Orbcomm
14.64308332;0.0019341;47.0636;34.8324;216.5567;143.4003;2.8164E-5;-3.2E-7;0;Orbcomm
14.64308355;0.0019343;47.0636;34.5074;216.8675;143.0885;2.8124E-5;-3.3E-7;0;Orbcomm
14.64308491;0.0019383;47.0636;31.2568;219.9236;140.0228;2.5448E-5;-4.7E-7;0;Orbcomm
14.6430859;0.0019388;47.0636;29.9567;221.1469;138.7958;2.6249E-5;-4.3E-7;0;Orbcomm
14.6430883;0.0019424;47.0636;26.7061;224.181;135.7528;2.7089E-5;-3.8E-7;0;Orbcomm
14.64309025;0.0019435;47.0636;25.0809;225.7023;134.2273;3.0014E-5;-2.3E-7;0;Orbcomm
14.64309297;0.0019469;47.0636;21.8303;228.7257;131.1955;3.1048E-5;-1.7E-7;0;Orbcomm
14.64309545;0.0019503;47.0635;17.2795;232.9898;126.9206;2.908E-5;-2.7E-7;0;Orbcomm
14.64309564;0.0019504;47.0635;16.9545;233.3015;126.6082;2.9251E-5;-2.7E-7;0;Orbcomm
14.64309806;0.0019537;47.0635;12.4036;237.5293;122.3707;2.7161E-5;-3.8E-7;0;Orbcomm
14.64309956;0.0019543;47.0635;11.1034;238.7463;121.1511;2.968E-5;-2.4E-7;0;Orbcomm
14.64310033;0.0019566;47.0635;7.5278;242.0716;117.8192;2.4981E-5;-4.9E-7;0;Orbcomm
14.64310162;0.0019594;47.0635;3.627;245.7582;114.1259;2.2618E-5;-6.2E-7;0;Orbcomm
14.64308466;0.0019563;47.0642;2.6529;246.1629;113.721;2.2576E-5;-6.2E-7;0;Orbcomm
14.64308239;0.0019599;47.0635;358.4263;250.4616;109.4156;2.1062E-5;-7.0E-7;0;Orbcomm
14.64308281;0.0019599;47.0635;358.1012;250.7701;109.1067;2.1431E-5;-6.8E-7;0;Orbcomm
14.6430834;0.0019597;47.0635;357.1261;251.7058;108.1699;2.1424E-5;-6.8E-7;0;Orbcomm
14.64308505;0.0019613;47.0634;353.5506;255.0388;104.833;2.1576E-5;-6.8E-7;0;Orbcomm
14.643088;0.0019624;47.0633;348.6747;259.3915;100.4764;2.0582E-5;-7.3E-7;0;Orbcomm
14.64308772;0.0019625;47.0633;348.3496;259.7215;100.1461;1.9141E-5;-8.1E-7;0;Orbcomm
14.6430876;0.0019628;47.0633;347.6995;260.3968;99.4703;1.8525E-5;-8.4E-7;0;Orbcomm
14.64308818;0.0019629;47.0632;343.7988;263.9828;95.8824;1.441E-5;-1.06E-6;0;Orbcomm
14.6430882;0.001963;47.0632;343.1488;264.6258;95.2391;1.4105E-5;-1.08E-6;0;Orbcomm
